API VERSION: 1.2
API SOURCE: NASA/JPL Horizons API



*******************************************************************************
Ephemeris / API_USER Mon Oct 30 14:03:19 2023 Pasadena, USA      / Horizons    
*******************************************************************************
Target body name: Moon (301)                      {source: DE441}
Center body name: Earth (399)                     {source: DE441}
Center-site name: GEOCENTRIC
*******************************************************************************
Start time      : A.D. 2024-Jan-01 00:00:00.0000 UT      
Stop  time      : A.D. 2025-Jan-01 00:00:00.0000 UT      
Step-size       : 60 minutes
*******************************************************************************
Target pole/equ : MOON_ME                         {East-longitude positive}
Target radii    : 1737.4, 1737.4, 1737.4 km       {Equator_a, b, pole_c}       
Center geodetic : 0.0, 0.0, -6378.137             {E-lon(deg),Lat(deg),Alt(km)}
Center cylindric: 0.0, 0.0, 0.0                   {E-lon(deg),Dxy(km),Dz(km)}
Center pole/equ : ITRF93                          {East-longitude positive}
Center radii    : 6378.137, 6378.137, 6356.752 km {Equator_a, b, pole_c}       
Target primary  : Earth
Vis. interferer : MOON (R_eq= 1737.400) km        {source: DE441}
Rel. light bend : Sun                             {source: DE441}
Rel. lght bnd GM: 1.3271E+11 km^3/s^2                                          
Atmos refraction: NO (AIRLESS)
RA format       : HMS
Time format     : CAL 
Calendar mode   : Mixed Julian/Gregorian
EOP file        : eop.231027.p240119                                           
EOP coverage    : DATA-BASED 1962-JAN-20 TO 2023-OCT-27. PREDICTS-> 2024-JAN-18
Units conversion: 1 au= 149597870.700 km, c= 299792.458 km/s, 1 day= 86400.0 s 
Table cut-offs 1: Elevation (-90.0deg=NO ),Airmass (>38.000=NO), Daylight (NO )
Table cut-offs 2: Solar elongation (  0.0,180.0=NO ),Local Hour Angle( 0.0=NO )
Table cut-offs 3: RA/DEC angular rate (     0.0=NO )                           
Table format    : Comma Separated Values (spreadsheet)
***********************************************************************************************************************************************
 Date__(UT)__HR:MN, , , R.A._(ICRF), DEC__(ICRF),      Illu%,  ObsSub-LON, ObsSub-LAT,  SunSub-LON, SunSub-LAT,    NP.ang,  NP.dist,     S-T-O,
***********************************************************************************************************************************************
$$SOE
 2024-Sep-09 21:00, , , 15 53 35.37, -24 41 26.0,   36.51372,  353.751745,   5.580730,   99.533757,   0.560033,   11.0118,  896.791,  105.6496,
 2024-Sep-09 22:00, , , 15 55 45.59, -24 49 20.2,   36.90884,  353.713975,   5.615448,   99.024944,   0.559084,   10.8336,  897.132,  105.1798,
 2024-Sep-09 23:00, , , 15 57 56.19, -24 57 07.7,   37.30519,  353.676695,   5.649749,   98.516143,   0.558132,   10.6539,  897.476,  104.7097,
 2024-Sep-10 00:00, , , 16 00 07.18, -25 04 48.5,   37.70276,  353.639911,   5.683631,   98.007353,   0.557178,   10.4729,  897.826,  104.2392,
 2024-Sep-10 01:00, , , 16 02 18.55, -25 12 22.5,   38.10152,  353.603628,   5.717090,   97.498574,   0.556222,   10.2904,  898.180,  103.7682,
 2024-Sep-10 02:00, , , 16 04 30.31, -25 19 49.6,   38.50145,  353.567851,   5.750122,   96.989807,   0.555263,   10.1064,  898.538,  103.2968,
 2024-Sep-10 03:00, , , 16 06 42.45, -25 27 09.8,   38.90254,  353.532586,   5.782723,   96.481052,   0.554302,    9.9211,  898.901,  102.8249,
 2024-Sep-10 04:00, , , 16 08 54.98, -25 34 22.9,   39.30477,  353.497838,   5.814891,   95.972308,   0.553338,    9.7344,  899.268,  102.3526,
 2024-Sep-10 05:00, , , 16 11 07.89, -25 41 29.0,   39.70811,  353.463612,   5.846621,   95.463576,   0.552372,    9.5463,  899.641,  101.8798,
 2024-Sep-10 06:00, , , 16 13 21.18, -25 48 27.9,   40.11254,  353.429915,   5.877910,   94.954856,   0.551403,    9.3569,  900.017,  101.4066,
 2024-Sep-10 07:00, , , 16 15 34.86, -25 55 19.5,   40.51804,  353.396750,   5.908754,   94.446148,   0.550431,    9.1660,  900.399,  100.9329,
 2024-Sep-10 08:00, , , 16 17 48.92, -26 02 03.8,   40.92459,  353.364124,   5.939150,   93.937451,   0.549457,    8.9739,  900.784,  100.4587,
 2024-Sep-10 09:00, , , 16 20 03.36, -26 08 40.8,   41.33218,  353.332041,   5.969095,   93.428766,   0.548480,    8.7804,  901.175,   99.9841,
 2024-Sep-10 10:00, , , 16 22 18.18, -26 15 10.3,   41.74077,  353.300506,   5.998584,   92.920092,   0.547501,    8.5856,  901.570,   99.5090,
 2024-Sep-10 11:00, , , 16 24 33.38, -26 21 32.3,   42.15035,  353.269526,   6.027615,   92.411431,   0.546519,    8.3894,  901.970,   99.0334,
 2024-Sep-10 12:00, , , 16 26 48.95, -26 27 46.8,   42.56089,  353.239105,   6.056183,   91.902781,   0.545534,    8.1920,  902.374,   98.5573,
 2024-Sep-10 13:00, , , 16 29 04.91, -26 33 53.5,   42.97238,  353.209248,   6.084285,   91.394144,   0.544547,    7.9933,  902.783,   98.0807,
 2024-Sep-10 14:00, , , 16 31 21.23, -26 39 52.6,   43.38479,  353.179960,   6.111918,   90.885518,   0.543557,    7.7933,  903.196,   97.6036,
 2024-Sep-10 15:00, , , 16 33 37.93, -26 45 43.8,   43.79810,  353.151247,   6.139077,   90.376904,   0.542564,    7.5921,  903.615,   97.1260,
 2024-Sep-10 16:00, , , 16 35 55.00, -26 51 27.2,   44.21229,  353.123113,   6.165760,   89.868302,   0.541568,    7.3896,  904.037,   96.6479,
 2024-Sep-10 17:00, , , 16 38 12.44, -26 57 02.6,   44.62733,  353.095564,   6.191963,   89.359712,   0.540570,    7.1860,  904.465,   96.1692,
 2024-Sep-10 18:00, , , 16 40 30.25, -27 02 30.1,   45.04320,  353.068604,   6.217683,   88.851134,   0.539569,    6.9811,  904.897,   95.6901,
 2024-Sep-10 19:00, , , 16 42 48.42, -27 07 49.4,   45.45989,  353.042239,   6.242915,   88.342569,   0.538565,    6.7750,  905.333,   95.2104,
 2024-Sep-10 20:00, , , 16 45 06.95, -27 13 00.7,   45.87735,  353.016474,   6.267657,   87.834015,   0.537558,    6.5678,  905.774,   94.7301,
 2024-Sep-10 21:00, , , 16 47 25.84, -27 18 03.7,   46.29558,  352.991312,   6.291904,   87.325473,   0.536548,    6.3594,  906.220,   94.2494,
 2024-Sep-10 22:00, , , 16 49 45.09, -27 22 58.4,   46.71454,  352.966760,   6.315654,   86.816944,   0.535536,    6.1499,  906.671,   93.7680,
 2024-Sep-10 23:00, , , 16 52 04.69, -27 27 44.8,   47.13422,  352.942823,   6.338903,   86.308426,   0.534520,    5.9393,  907.126,   93.2862,
 2024-Sep-11 00:00, , , 16 54 24.65, -27 32 22.8,   47.55459,  352.919504,   6.361647,   85.799921,   0.533502,    5.7276,  907.585,   92.8037,
 2024-Sep-11 01:00, , , 16 56 44.95, -27 36 52.3,   47.97562,  352.896808,   6.383883,   85.291428,   0.532480,    5.5148,  908.049,   92.3207,
 2024-Sep-11 02:00, , , 16 59 05.59, -27 41 13.2,   48.39729,  352.874741,   6.405607,   84.782947,   0.531456,    5.3010,  908.518,   91.8372,
 2024-Sep-11 03:00, , , 17 01 26.58, -27 45 25.5,   48.81958,  352.853308,   6.426816,   84.274478,   0.530429,    5.0862,  908.991,   91.3530,
 2024-Sep-11 04:00, , , 17 03 47.90, -27 49 29.2,   49.24246,  352.832512,   6.447507,   83.766022,   0.529398,    4.8704,  909.469,   90.8683,
 2024-Sep-11 05:00, , , 17 06 09.56, -27 53 24.1,   49.66590,  352.812358,   6.467675,   83.257578,   0.528365,    4.6536,  909.951,   90.3830,
 2024-Sep-11 06:00, , , 17 08 31.54, -27 57 10.2,   50.08989,  352.792851,   6.487318,   82.749146,   0.527328,    4.4358,  910.438,   89.8971,
 2024-Sep-11 07:00, , , 17 10 53.86, -28 00 47.4,   50.51438,  352.773996,   6.506433,   82.240726,   0.526289,    4.2171,  910.930,   89.4106,
 2024-Sep-11 08:00, , , 17 13 16.49, -28 04 15.7,   50.93937,  352.755797,   6.525014,   81.732319,   0.525246,    3.9975,  911.426,   88.9235,
 2024-Sep-11 09:00, , , 17 15 39.44, -28 07 35.0,   51.36482,  352.738258,   6.543061,   81.223924,   0.524201,    3.7771,  911.926,   88.4358,
 2024-Sep-11 10:00, , , 17 18 02.71, -28 10 45.3,   51.79070,  352.721384,   6.560568,   80.715541,   0.523152,    3.5557,  912.431,   87.9475,
 2024-Sep-11 11:00, , , 17 20 26.28, -28 13 46.4,   52.21699,  352.705179,   6.577532,   80.207171,   0.522100,    3.3336,  912.940,   87.4585,
 2024-Sep-11 12:00, , , 17 22 50.16, -28 16 38.3,   52.64366,  352.689648,   6.593951,   79.698813,   0.521045,    3.1106,  913.454,   86.9690,
 2024-Sep-11 13:00, , , 17 25 14.33, -28 19 21.0,   53.07068,  352.674794,   6.609820,   79.190467,   0.519987,    2.8869,  913.972,   86.4788,
 2024-Sep-11 14:00, , , 17 27 38.80, -28 21 54.4,   53.49803,  352.660621,   6.625137,   78.682134,   0.518925,    2.6624,  914.494,   85.9880,
 2024-Sep-11 15:00, , , 17 30 03.56, -28 24 18.5,   53.92568,  352.647135,   6.639898,   78.173813,   0.517860,    2.4372,  915.021,   85.4965,
 2024-Sep-11 16:00, , , 17 32 28.61, -28 26 33.1,   54.35360,  352.634339,   6.654099,   77.665504,   0.516792,    2.2114,  915.552,   85.0044,
 2024-Sep-11 17:00, , , 17 34 53.93, -28 28 38.3,   54.78176,  352.622237,   6.667738,   77.157208,   0.515721,    1.9848,  916.088,   84.5117,
 2024-Sep-11 18:00, , , 17 37 19.52, -28 30 33.9,   55.21014,  352.610832,   6.680811,   76.648925,   0.514647,    1.7577,  916.628,   84.0183,
 2024-Sep-11 19:00, , , 17 39 45.38, -28 32 20.0,   55.63870,  352.600130,   6.693316,   76.140653,   0.513569,    1.5299,  917.172,   83.5242,
 2024-Sep-11 20:00, , , 17 42 11.51, -28 33 56.4,   56.06741,  352.590133,   6.705247,   75.632394,   0.512488,    1.3016,  917.720,   83.0295,
 2024-Sep-11 21:00, , , 17 44 37.89, -28 35 23.2,   56.49625,  352.580846,   6.716604,   75.124148,   0.511403,    1.0728,  918.273,   82.5341,
 2024-Sep-11 22:00, , , 17 47 04.51, -28 36 40.2,   56.92518,  352.572272,   6.727381,   74.615914,   0.510315,    0.8434,  918.829,   82.0381,
 2024-Sep-11 23:00, , , 17 49 31.39, -28 37 47.4,   57.35418,  352.564415,   6.737576,   74.107692,   0.509224,    0.6136,  919.390,   81.5413,
